{
  "norad_id": 67920,
  "name": "STARLINK-36375",
  "history": [
    {
      "epoch": "2026-03-28T19:45:18.793152Z",
      "apogee_km": 480.9604032261577,
      "perigee_km": 480.28879329045594,
      "latitude_deg": 2.0772399894755243e-05,
      "longitude_deg": 15.043363385280966,
      "height_km": 480.21893603494686,
      "semi_major_axis_km": 6858.761598258307,
      "eccentricity": 4.896e-05,
      "inclination_deg": 43.0018,
      "raan_deg": 137.6097,
      "arg_perigee_deg": 302.742,
      "mean_anomaly_deg": 57.3385,
      "mean_motion_rev_day": 15.28390046
    }
  ]
}